{"type": "FeatureCollection", "features": [ {"type": "Feature", "properties": {"norad_id": 43262, "name": "GAOFEN-1 04", "group": "resource", "lat": -79.42563634707088, "lon": 171.68380391743975, "alt_km": 648.6699698018247, "timestamp": "2025-12-09T09:46:47.304721+00:00", "meta": {"OBJECT_NAME": "GAOFEN-1 04", "OBJECT_ID": "2018-031D", "EPOCH": "2025-12-09T05:20:18.314880", "MEAN_MOTION": 14.76438837, "ECCENTRICITY": 0.0001184, "INCLINATION": 98.0809, "RA_OF_ASC_NODE": 41.0565, "ARG_OF_PERICENTER": 56.9702, "MEAN_ANOMALY": 303.1621, "EPHEMERIS_TYPE": 0, "CLASSIFICATION_TYPE": "U", "NORAD_CAT_ID": 43262, "ELEMENT_SET_NO": 999, "REV_AT_EPOCH": 41465, "BSTAR": 0.00020794, "MEAN_MOTION_DOT": 1.394e-05, "MEAN_MOTION_DDOT": 0}, "tle": {"line1": "1 43262U 18031D   25343.22243420  .00001394  00000+0  20794-3 0  9997", "line2": "2 43262  98.0809  41.0565 0001184  56.9702 303.1621 14.76438837414654"}}, "geometry": {"type": "Point", "coordinates": [171.68380391743975, -79.42563634707088]}}, {"type": "Feature", "properties": {"norad_id": 43437, "name": "SENTINEL-3B", "group": "resource", "lat": -54.0716139260812, "lon": 60.73359302186929, "alt_km": 810.6649191366087, "timestamp": "2025-12-09T09:46:47.304731+00:00", "meta": {"OBJECT_NAME": "SENTINEL-3B", "OBJECT_ID": "2018-039A", "EPOCH": "2025-12-09T03:18:16.928352", "MEAN_MOTION": 14.26740637, "ECCENTRICITY": 0.0001536, "INCLINATION": 98.627, "RA_OF_ASC_NODE": 48.3743, "ARG_OF_PERICENTER": 106.3864, "MEAN_ANOMALY": 253.7485, "EPHEMERIS_TYPE": 0, "CLASSIFICATION_TYPE": "U", "NORAD_CAT_ID": 43437, "ELEMENT_SET_NO": 999, "REV_AT_EPOCH": 39702, "BSTAR": 0.00011479, "MEAN_MOTION_DOT": 2.34e-06, "MEAN_MOTION_DDOT": 0}, "tle": {"line1": "1 43437U 18039A   25343.13769593  .00000234  00000+0  11479-3 0  9995", "line2": "2 43437  98.6270  48.3743 0001536 106.3864 253.7485 14.26740637397022"}}, "geometry": {"type": "Point", "coordinates": [60.73359302186929, -54.0716139260812]}}, {"type": "Feature", "properties": {"norad_id": 43461, "name": "GAOFEN-5 01", "group": "resource", "lat": -69.20085867065524, "lon": 103.33001696678981, "alt_km": 699.3114962006102, "timestamp": "2025-12-09T09:46:47.304742+00:00", "meta": {"OBJECT_NAME": "GAOFEN-5 01", "OBJECT_ID": "2018-043A", "EPOCH": "2025-12-08T21:07:26.099616", "MEAN_MOTION": 14.60403168, "ECCENTRICITY": 0.00012268, "INCLINATION": 98.432, "RA_OF_ASC_NODE": 305.7801, "ARG_OF_PERICENTER": 354.7896, "MEAN_ANOMALY": 5.329, "EPHEMERIS_TYPE": 0, "CLASSIFICATION_TYPE": "U", "NORAD_CAT_ID": 43461, "ELEMENT_SET_NO": 999, "REV_AT_EPOCH": 40391, "BSTAR": 0.00018217516, "MEAN_MOTION_DOT": 8.33e-06, "MEAN_MOTION_DDOT": 0}, "tle": {"line1": "1 43461U 18043A   25342.88016319  .00000833  00000+0  18218-3 0  9992", "line2": "2 43461  98.4320 305.7801 0001226 354.7896   5.3290 14.60403168403912"}}, "geometry": {"type": "Point", "coordinates": [103.33001696678981, -69.20085867065524]}}, {"type": "Feature", "properties": {"norad_id": 43484, "name": "GAOFEN-6", "group": "resource", "lat": 52.188254054949525, "lon": 37.607579667218424, "alt_km": 626.6192877592757, "timestamp": "2025-12-09T09:46:47.304753+00:00", "meta": {"OBJECT_NAME": "GAOFEN-6", "OBJECT_ID": "2018-048A", "EPOCH": "2025-12-09T04:39:44.522784", "MEAN_MOTION": 14.76554468, "ECCENTRICITY": 0.0013283, "INCLINATION": 97.8033, "RA_OF_ASC_NODE": 47.5801, "ARG_OF_PERICENTER": 73.7948, "MEAN_ANOMALY": 286.4723, "EPHEMERIS_TYPE": 0, "CLASSIFICATION_TYPE": "U", "NORAD_CAT_ID": 43484, "ELEMENT_SET_NO": 999, "REV_AT_EPOCH": 40535, "BSTAR": 0.0001072, "MEAN_MOTION_DOT": 6.99e-06, "MEAN_MOTION_DDOT": 0}, "tle": {"line1": "1 43484U 18048A   25343.19426531  .00000699  00000+0  10720-3 0  9998", "line2": "2 43484  97.8033  47.5801 0013283  73.7948 286.4723 14.76554468405354"}}, "geometry": {"type": "Point", "coordinates": [37.607579667218424, 52.188254054949525]}}, {"type": "Feature", "properties": {"norad_id": 43585, "name": "GAOFEN-11 01", "group": "resource", "lat": 69.13745232006173, "lon": 27.122194629161307, "alt_km": 413.33826143802344, "timestamp": "2025-12-09T09:46:47.304764+00:00", "meta": {"OBJECT_NAME": "GAOFEN-11 01", "OBJECT_ID": "2018-063A", "EPOCH": "2025-12-09T04:49:34.707360", "MEAN_MOTION": 15.49068217, "ECCENTRICITY": 0.0004548, "INCLINATION": 97.1558, "RA_OF_ASC_NODE": 46.1653, "ARG_OF_PERICENTER": 330.1363, "MEAN_ANOMALY": 29.9628, "EPHEMERIS_TYPE": 0, "CLASSIFICATION_TYPE": "U", "NORAD_CAT_ID": 43585, "ELEMENT_SET_NO": 999, "REV_AT_EPOCH": 41087, "BSTAR": 0.00038551, "MEAN_MOTION_DOT": 0.00020852, "MEAN_MOTION_DDOT": 0}, "tle": {"line1": "1 43585U 18063A   25343.20109615  .00020852  00000+0  38551-3 0  9995", "line2": "2 43585  97.1558  46.1653 0004548 330.1363  29.9628 15.49068217410876"}}, "geometry": {"type": "Point", "coordinates": [27.122194629161307, 69.13745232006173]}}, {"type": "Feature", "properties": {"norad_id": 43613, "name": "ICESAT-2", "group": "resource", "lat": 56.813997388231115, "lon": -123.23161948716267, "alt_km": 475.9734802388284, "timestamp": "2025-12-09T09:46:47.304774+00:00", "meta": {"OBJECT_NAME": "ICESAT-2", "OBJECT_ID": "2018-070A", "EPOCH": "2025-12-09T03:14:44.602080", "MEAN_MOTION": 15.28253832, "ECCENTRICITY": 0.0002212, "INCLINATION": 92.0044, "RA_OF_ASC_NODE": 239.7645, "ARG_OF_PERICENTER": 158.2471, "MEAN_ANOMALY": 201.8873, "EPHEMERIS_TYPE": 0, "CLASSIFICATION_TYPE": "U", "NORAD_CAT_ID": 43613, "ELEMENT_SET_NO": 999, "REV_AT_EPOCH": 40343, "BSTAR": 0.00056042, "MEAN_MOTION_DOT": 0.00015431, "MEAN_MOTION_DDOT": 0}, "tle": {"line1": "1 43613U 18070A   25343.13523845  .00015431  00000+0  56042-3 0  9994", "line2": "2 43613  92.0044 239.7645 0002212 158.2471 201.8873 15.28253832403431"}}, "geometry": {"type": "Point", "coordinates": [-123.23161948716267, 56.813997388231115]}}, {"type": "Feature", "properties": {"norad_id": 43719, "name": "HYSIS", "group": "resource", "lat": 62.239584275224175, "lon": 30.884549439549136, "alt_km": 626.5244353753587, "timestamp": "2025-12-09T09:46:47.304785+00:00", "meta": {"OBJECT_NAME": "HYSIS", "OBJECT_ID": "2018-096A", "EPOCH": "2025-12-08T23:44:59.344800", "MEAN_MOTION": 14.78627369, "ECCENTRICITY": 0.00015448, "INCLINATION": 98.0099, "RA_OF_ASC_NODE": 45.9855, "ARG_OF_PERICENTER": 56.7572, "MEAN_ANOMALY": 303.3787, "EPHEMERIS_TYPE": 0, "CLASSIFICATION_TYPE": "U", "NORAD_CAT_ID": 43719, "ELEMENT_SET_NO": 999, "REV_AT_EPOCH": 37931, "BSTAR": 0.00020974536, "MEAN_MOTION_DOT": 1.484e-05, "MEAN_MOTION_DDOT": 0}, "tle": {"line1": "1 43719U 18096A   25342.98957575  .00001484  00000+0  20975-3 0  9991", "line2": "2 43719  98.0099  45.9855 0001544  56.7572 303.3787 14.78627369379310"}}, "geometry": {"type": "Point", "coordinates": [30.884549439549136, 62.239584275224175]}}, {"type": "Feature", "properties": {"norad_id": 43783, "name": "KAZSTSAT", "group": "resource", "lat": 51.06411886785456, "lon": 9.407588863055878, "alt_km": 562.6514312677218, "timestamp": "2025-12-09T09:46:47.304795+00:00", "meta": {"OBJECT_NAME": "KAZSTSAT", "OBJECT_ID": "2018-099AB", "EPOCH": "2025-12-09T01:32:30.411168", "MEAN_MOTION": 14.99334862, "ECCENTRICITY": 0.0006104, "INCLINATION": 97.4556, "RA_OF_ASC_NODE": 18.407, "ARG_OF_PERICENTER": 345.3373, "MEAN_ANOMALY": 14.7673, "EPHEMERIS_TYPE": 0, "CLASSIFICATION_TYPE": "U", "NORAD_CAT_ID": 43783, "ELEMENT_SET_NO": 999, "REV_AT_EPOCH": 38281, "BSTAR": 0.00018724, "MEAN_MOTION_DOT": 2.233e-05, "MEAN_MOTION_DDOT": 0}, "tle": {"line1": "1 43783U 18099AB  25343.06424087  .00002233  00000+0  18724-3 0  9994", "line2": "2 43783  97.4556  18.4070 0006104 345.3373  14.7673 14.99334862382811"}}, "geometry": {"type": "Point", "coordinates": [9.407588863055878, 51.06411886785456]}}, {"type": "Feature", "properties": {"norad_id": 43831, "name": "SAUDISAT 5A", "group": "resource", "lat": 29.853665355263495, "lon": -132.09732157337018, "alt_km": 483.9515557802024, "timestamp": "2025-12-09T09:46:47.304806+00:00", "meta": {"OBJECT_NAME": "SAUDISAT 5A", "OBJECT_ID": "2018-102A", "EPOCH": "2025-12-09T04:24:14.508864", "MEAN_MOTION": 15.25587195, "ECCENTRICITY": 0.0011822, "INCLINATION": 97.3352, "RA_OF_ASC_NODE": 43.443, "ARG_OF_PERICENTER": 87.1612, "MEAN_ANOMALY": 273.0979, "EPHEMERIS_TYPE": 0, "CLASSIFICATION_TYPE": "U", "NORAD_CAT_ID": 43831, "ELEMENT_SET_NO": 999, "REV_AT_EPOCH": 38668, "BSTAR": 0.00031934, "MEAN_MOTION_DOT": 8.056e-05, "MEAN_MOTION_DDOT": 0}, "tle": {"line1": "1 43831U 18102A   25343.18350126  .00008056  00000+0  31934-3 0  9995", "line2": "2 43831  97.3352  43.4430 0011822  87.1612 273.0979 15.25587195386683"}}, "geometry": {"type": "Point", "coordinates": [-132.09732157337018, 29.853665355263495]}}, {"type": "Feature", "properties": {"norad_id": 43833, "name": "SAUDISAT 5B", "group": "resource", "lat": -17.76822373846481, "lon": -135.97364995180408, "alt_km": 495.8382426765811, "timestamp": "2025-12-09T09:46:47.304817+00:00", "meta": {"OBJECT_NAME": "SAUDISAT 5B", "OBJECT_ID": "2018-102C", "EPOCH": "2025-12-09T04:11:43.526976", "MEAN_MOTION": 15.25941588, "ECCENTRICITY": 0.0012527, "INCLINATION": 97.3447, "RA_OF_ASC_NODE": 46.1667, "ARG_OF_PERICENTER": 89.5312, "MEAN_ANOMALY": 270.7362, "EPHEMERIS_TYPE": 0, "CLASSIFICATION_TYPE": "U", "NORAD_CAT_ID": 43833, "ELEMENT_SET_NO": 999, "REV_AT_EPOCH": 38679, "BSTAR": 0.00029361, "MEAN_MOTION_DOT": 7.481e-05, "MEAN_MOTION_DDOT": 0}, "tle": {"line1": "1 43833U 18102C   25343.17480934  .00007481  00000+0  29361-3 0  9999", "line2": "2 43833  97.3447  46.1667 0012527  89.5312 270.7362 15.25941588386790"}}, "geometry": {"type": "Point", "coordinates": [-135.97364995180408, -17.76822373846481]}}]}